SENTINEL-6              
1 46984U 20086A   23240.90035836 -.00000038  00000+0  10066-3 0  9999
2 46984  66.0403 100.4313 0007864 268.5173  91.4941 12.80929311129265
